
# Worst residual: 11.16 km
# MJD 57676.000000 (2016 Oct 15  0:00)
WE0913A = DSCOVR object = 2015-007B = NORAD 40391
1 40391U 15007B   16289.49921083  .00000000  00000-0  00000-0 2  3549
2 40391 078.6979 020.8309 3636640 166.5746 343.3779 00.05546133    03

# Worst residual: 13.32 km
# MJD 57677.000000 (2016 Oct 16  0:00)
WE0913A = DSCOVR object = 2015-007B = NORAD 40391
1 40391U 15007B   16290.49921083  .00000000  00000-0  00000-0 2  3541
2 40391 078.7008 020.8281 3666122 166.2278 003.4757 00.05504409    01

# Worst residual: 13.25 km
# MJD 57678.000000 (2016 Oct 17  0:00)
WE0913A = DSCOVR object = 2015-007B = NORAD 40391
1 40391U 15007B   16291.49921083  .00000000  00000-0  00000-0 2  3542
2 40391 078.6864 020.8233 3674136 165.8600 023.4288 00.05501398    00

# Worst residual: 10.78 km
# MJD 57679.000000 (2016 Oct 18  0:00)
WE0913A = DSCOVR object = 2015-007B = NORAD 40391
1 40391U 15007B   16292.49921083  .00000000  00000-0  00000-0 2  3543
2 40391 078.6634 020.7918 3667801 165.3011 043.6909 00.05531543    05

# Worst residual: 10.20 km
# MJD 57680.000000 (2016 Oct 19  0:00)
WE0913A = DSCOVR object = 2015-007B = NORAD 40391
1 40391U 15007B   16293.49921083  .00000000  00000-0  00000-0 2  3544
2 40391 078.6525 020.7271 3663509 164.7424 064.2081 00.05565402    09

# Worst residual: 9.58 km
# MJD 57681.000000 (2016 Oct 20  0:00)
WE0913A = DSCOVR object = 2015-007B = NORAD 40391
1 40391U 15007B   16294.49921083  .00000000  00000-0  00000-0 2  3545
2 40391 078.6682 020.6379 3661835 164.3885 084.7281 00.05587100    06

# Worst residual: 8.45 km
# MJD 57682.000000 (2016 Oct 21  0:00)
WE0913A = DSCOVR object = 2015-007B = NORAD 40391
1 40391U 15007B   16295.49921083  .00000000  00000-0  00000-0 2  3546
2 40391 078.7159 020.5382 3657677 164.2904 105.0689 00.05593230    09

# Worst residual: 7.66 km
# MJD 57683.000000 (2016 Oct 22  0:00)
WE0913A = DSCOVR object = 2015-007B = NORAD 40391
1 40391U 15007B   16296.49921083  .00000000  00000-0  00000-0 2  3547
2 40391 078.7920 020.4429 3647422 164.4069 125.1382 00.05586227    08

# Worst residual: 11.99 km
# MJD 57684.000000 (2016 Oct 23  0:00)
WE0913A = DSCOVR object = 2015-007B = NORAD 40391
1 40391U 15007B   16297.49921083  .00000000  00000-0  00000-0 2  3548
2 40391 078.8857 020.3647 3630437 164.6667 144.9095 00.05570871    01

# Worst residual: 15.56 km
# MJD 57685.000000 (2016 Oct 24  0:00)
WE0913A = DSCOVR object = 2015-007B = NORAD 40391
1 40391U 15007B   16298.49921083  .00000000  00000-0  00000-0 2  3549
2 40391 078.9821 020.3110 3608679 165.0051 164.4002 00.05552648    00

# Worst residual: 18.16 km
# MJD 57686.000000 (2016 Oct 25  0:00)
WE0913A = DSCOVR object = 2015-007B = NORAD 40391
1 40391U 15007B   16299.49921083  .00000000  00000-0  00000-0 2  3540
2 40391 079.0658 020.2824 3585616 165.3826 183.6527 00.05536849    09

# Worst residual: 19.70 km
# MJD 57687.000000 (2016 Oct 26  0:00)
WE0913A = DSCOVR object = 2015-007B = NORAD 40391
1 40391U 15007B   16300.49921083  .00000000  00000-0  00000-0 2  3543
2 40391 079.1250 020.2734 3564989 165.7916 202.7221 00.05528072    05

# Worst residual: 20.16 km
# MJD 57688.000000 (2016 Oct 27  0:00)
WE0913A = DSCOVR object = 2015-007B = NORAD 40391
1 40391U 15007B   16301.49921083  .00000000  00000-0  00000-0 2  3544
2 40391 079.1532 020.2740 3549626 166.2523 221.6712 00.05529877    05

# Worst residual: 19.69 km
# MJD 57689.000000 (2016 Oct 28  0:00)
WE0913A = DSCOVR object = 2015-007B = NORAD 40391
1 40391U 15007B   16302.49921083  .00000000  00000-0  00000-0 2  3545
2 40391 079.1509 020.2731 3540575 166.7983 240.5725 00.05544462    09

# Worst residual: 18.15 km
# MJD 57690.000000 (2016 Oct 29  0:00)
WE0913A = DSCOVR object = 2015-007B = NORAD 40391
1 40391U 15007B   16303.49921083  .00000000  00000-0  00000-0 2  3546
2 40391 079.1251 020.2604 3536667 167.4543 259.5155 00.05572182    06

# Worst residual: 15.56 km
# MJD 57691.000000 (2016 Oct 30  0:00)
WE0913A = DSCOVR object = 2015-007B = NORAD 40391
1 40391U 15007B   16304.49921083  .00000000  00000-0  00000-0 2  3547
2 40391 079.0889 020.2304 3534789 168.2076 278.6150 00.05610751    04

# Worst residual: 12.07 km
# MJD 57692.000000 (2016 Oct 31  0:00)
WE0913A = DSCOVR object = 2015-007B = NORAD 40391
1 40391U 15007B   16305.49921083  .00000000  00000-0  00000-0 2  3548
2 40391 079.0583 020.1854 3531374 168.9769 298.0134 00.05653969    03

# Worst residual: 7.98 km
# MJD 57693.000000 (2016 Nov  1  0:00)
WE0913A = DSCOVR object = 2015-007B = NORAD 40391
1 40391U 15007B   16306.49921083  .00000000  00000-0  00000-0 2  3549
2 40391 079.0466 020.1382 3525929 169.6011 317.8539 00.05690205    09

# Worst residual: 6.18 km
# MJD 57694.000000 (2016 Nov  2  0:00)
WE0913A = DSCOVR object = 2015-007B = NORAD 40391
1 40391U 15007B   16307.49921083  .00000000  00000-0  00000-0 2  3540
2 40391 079.0527 020.1102 3525661 169.9164 338.1682 00.05703449    02

# Worst residual: 5.52 km
# MJD 57695.000000 (2016 Nov  3  0:00)
WE0913A = DSCOVR object = 2015-007B = NORAD 40391
1 40391U 15007B   16308.49921083  .00000000  00000-0  00000-0 2  3541
2 40391 079.0487 020.1110 3538887 169.9949 358.6769 00.05688283    02

# Worst residual: 6.96 km
# MJD 57696.000000 (2016 Nov  4  0:00)
WE0913A = DSCOVR object = 2015-007B = NORAD 40391
1 40391U 15007B   16309.49921083  .00000000  00000-0  00000-0 2  3542
2 40391 079.0107 020.1043 3548822 170.0550 019.0811 00.05674723    07

# Worst residual: 9.74 km
# MJD 57697.000000 (2016 Nov  5  0:00)
WE0913A = DSCOVR object = 2015-007B = NORAD 40391
1 40391U 15007B   16310.49921083  .00000000  00000-0  00000-0 2  3544
2 40391 078.9723 020.0610 3539474 169.9843 039.6484 00.05687583    05

# Worst residual: 14.67 km
# MJD 57698.000000 (2016 Nov  6  0:00)
WE0913A = DSCOVR object = 2015-007B = NORAD 40391
1 40391U 15007B   16311.49921083  .00000000  00000-0  00000-0 2  3545
2 40391 078.9604 020.0050 3520918 169.7718 060.5482 00.05712322    04

# Worst residual: 18.42 km
# MJD 57699.000000 (2016 Nov  7  0:00)
WE0913A = DSCOVR object = 2015-007B = NORAD 40391
1 40391U 15007B   16312.49921083  .00000000  00000-0  00000-0 2  3546
2 40391 078.9700 019.9509 3498580 169.5605 081.6637 00.05732257    04
